{
  "fetched_at": "2026-05-07T01:52:37.706757+00:00",
  "satellites": {
    "57166": {
      "name": "Meteor M2-3",
      "tle_line1": "1 57166U 23091A   26126.85445576 -.00000001  00000+0  18221-4 0  9990",
      "tle_line2": "2 57166  98.6109 182.6717 0002820 298.4061  61.6833 14.24043271148631"
    },
    "59051": {
      "name": "Meteor M2-4",
      "tle_line1": "1 59051U 24039A   26126.89260352  .00000009  00000+0  23954-4 0  9995",
      "tle_line2": "2 59051  98.6988  86.7165 0006019 294.1146  65.9402 14.22425185113393"
    },
    "38771": {
      "name": "MetOp-B",
      "tle_line1": "1 38771U 12049A   26126.79934920  .00000096  00000+0  63718-4 0  9995",
      "tle_line2": "2 38771  98.6534 179.1177 0003575 103.9277 256.2298 14.21436422707383"
    },
    "43689": {
      "name": "MetOp-C",
      "tle_line1": "1 43689U 18087A   26126.82085875  .00000106  00000+0  68477-4 0  9996",
      "tle_line2": "2 43689  98.6668 187.1749 0000340  57.2334 302.8876 14.21500775388952"
    },
    "60543": {
      "name": "Arctic Weather Satellite",
      "tle_line1": "1 60543U 24149CD  26126.78026184  .00000780  00000+0  86904-4 0  9996",
      "tle_line2": "2 60543  97.6810 198.4257 0001083 203.3913 156.7256 14.89788069 93138"
    }
  }
}